STARLINK-36361          
1 67900U 26035X   26064.83334490 -.01248231  48085-3 -28411-2 0  9999
2 67900  97.2720 356.9075 0001293  94.1532  48.2799 15.97528770  3132
STARLINK-36336          
1 67901U 26035Y   26064.83334490 -.01241758  47737-3 -27927-2 0  9991
2 67901  97.2728 356.9136 0001205  87.2485  68.5648 15.97746008  3181
STARLINK-36876          
1 67902U 26035Z   26064.83334490 -.01258132  48834-3 -28514-2 0  9998
2 67902  97.2726 356.9102 0001306  95.0023  51.3352 15.97608264  3138
STARLINK-36257          
1 67903U 26035AA  26064.83334490 -.01262681  49202-3 -28498-2 0  9994
2 67903  97.2724 356.9110 0001217  80.5415  69.8802 15.97684736  3188
STARLINK-36814          
1 67904U 26036A   26064.83334490  .00061480  00000+0  29278-3 0  9994
2 67904  42.9983 273.4458 0002233 269.4696 294.4223 15.81988884  3029
STARLINK-36729          
1 67905U 26036B   26064.83334490  .00075805  00000+0  36008-3 0  9990
2 67905  42.9983 273.4345 0001760 279.8350 288.3466 15.81974097  3023
STARLINK-36763          
1 67906U 26036C   26064.83334490  .00037281  00000+0  17904-3 0  9991
2 67906  42.9987 273.4234 0001666 248.9505 323.4996 15.81989659  3028
STARLINK-36742          
1 67907U 26036D   26064.83334490  .00045979  00000+0  22005-3 0  9993
2 67907  42.9985 273.4131 0001710 257.5493 319.1768 15.81984471  3021
STARLINK-36827          
1 67908U 26036E   26064.83334490  .00047146  00000+0  22546-3 0  9992
2 67908  42.9983 273.4024 0001425 268.5627 312.4256 15.81991849  3020
STARLINK-36822          
1 67909U 26036F   26064.83334490  .00028793  00000+0  13893-3 0  9995
2 67909  42.9985 273.3920 0001756 247.3928 337.8684 15.81998270  3024
STARLINK-36847          
1 67910U 26036G   26064.83334490 -.00033487  00000+0 -15701-3 0  9995
2 67910  42.9986 273.3810 0001744 280.8159 308.7112 15.82028417  3021
STARLINK-36736          
1 67911U 26036H   26064.83334490  .00008107  00000+0  41017-4 0  9995
2 67911  42.9988 273.3700 0001860 302.7171 291.1011 15.82004800  3022
STARLINK-36676          
1 67912U 26036J   26064.83334490 -.00003497  00000+0 -14076-4 0  9990
2 67912  42.9986 273.3596 0002030 264.7249 333.3527 15.82016841  3026
STARLINK-36690          
1 67913U 26036K   26064.83334490 -.00054599  00000+0 -25802-3 0  9998
2 67913  42.9987 273.3488 0001621 294.1971 308.1454 15.82046450  3020
STARLINK-36724          
1 67914U 26036L   26064.83334490  .00020065  00000+0  97696-4 0  9999
2 67914  42.9988 273.3266 0001963 302.1671 308.7259 15.81993777  3023
STARLINK-36723          
1 67915U 26036M   26064.83334490 -.00018633  00000+0 -86116-4 0  9995
2 67915  42.9987 273.3379 0001597 276.0895 330.5264 15.82023525  3023
