[{"OBJECT_NAME":"STARLINK-36361","OBJECT_ID":"2026-035X","EPOCH":"2026-03-05T20:00:00.999360","MEAN_MOTION":15.9752877,"ECCENTRICITY":0.0001293,"INCLINATION":97.272,"RA_OF_ASC_NODE":356.9075,"ARG_OF_PERICENTER":94.1532,"MEAN_ANOMALY":48.2799,"EPHEMERIS_TYPE":0,"CLASSIFICATION_TYPE":"U","NORAD_CAT_ID":67900,"ELEMENT_SET_NO":999,"REV_AT_EPOCH":313,"BSTAR":-0.0028411,"MEAN_MOTION_DOT":-0.01248231,"MEAN_MOTION_DDOT":0.00048085},{"OBJECT_NAME":"STARLINK-36336","OBJECT_ID":"2026-035Y","EPOCH":"2026-03-05T20:00:00.999360","MEAN_MOTION":15.97746008,"ECCENTRICITY":0.0001205,"INCLINATION":97.2728,"RA_OF_ASC_NODE":356.9136,"ARG_OF_PERICENTER":87.2485,"MEAN_ANOMALY":68.5648,"EPHEMERIS_TYPE":0,"CLASSIFICATION_TYPE":"U","NORAD_CAT_ID":67901,"ELEMENT_SET_NO":999,"REV_AT_EPOCH":318,"BSTAR":-0.0027927,"MEAN_MOTION_DOT":-0.01241758,"MEAN_MOTION_DDOT":0.00047737},{"OBJECT_NAME":"STARLINK-36876","OBJECT_ID":"2026-035Z","EPOCH":"2026-03-05T20:00:00.999360","MEAN_MOTION":15.97608264,"ECCENTRICITY":0.0001306,"INCLINATION":97.2726,"RA_OF_ASC_NODE":356.9102,"ARG_OF_PERICENTER":95.0023,"MEAN_ANOMALY":51.3352,"EPHEMERIS_TYPE":0,"CLASSIFICATION_TYPE":"U","NORAD_CAT_ID":67902,"ELEMENT_SET_NO":999,"REV_AT_EPOCH":313,"BSTAR":-0.0028514,"MEAN_MOTION_DOT":-0.01258132,"MEAN_MOTION_DDOT":0.00048834},{"OBJECT_NAME":"STARLINK-36257","OBJECT_ID":"2026-035AA","EPOCH":"2026-03-05T20:00:00.999360","MEAN_MOTION":15.97684736,"ECCENTRICITY":0.0001217,"INCLINATION":97.2724,"RA_OF_ASC_NODE":356.911,"ARG_OF_PERICENTER":80.5415,"MEAN_ANOMALY":69.8802,"EPHEMERIS_TYPE":0,"CLASSIFICATION_TYPE":"U","NORAD_CAT_ID":67903,"ELEMENT_SET_NO":999,"REV_AT_EPOCH":318,"BSTAR":-0.0028498,"MEAN_MOTION_DOT":-0.01262681,"MEAN_MOTION_DDOT":0.00049202},{"OBJECT_NAME":"STARLINK-36814","OBJECT_ID":"2026-036A","EPOCH":"2026-03-05T20:00:00.999360","MEAN_MOTION":15.81988884,"ECCENTRICITY":0.0002233,"INCLINATION":42.9983,"RA_OF_ASC_NODE":273.4458,"ARG_OF_PERICENTER":269.4696,"MEAN_ANOMALY":294.4223,"EPHEMERIS_TYPE":0,"CLASSIFICATION_TYPE":"U","NORAD_CAT_ID":67904,"ELEMENT_SET_NO":999,"REV_AT_EPOCH":302,"BSTAR":0.00029278,"MEAN_MOTION_DOT":0.0006148,"MEAN_MOTION_DDOT":0},{"OBJECT_NAME":"STARLINK-36729","OBJECT_ID":"2026-036B","EPOCH":"2026-03-05T20:00:00.999360","MEAN_MOTION":15.81974097,"ECCENTRICITY":0.000176,"INCLINATION":42.9983,"RA_OF_ASC_NODE":273.4345,"ARG_OF_PERICENTER":279.835,"MEAN_ANOMALY":288.3466,"EPHEMERIS_TYPE":0,"CLASSIFICATION_TYPE":"U","NORAD_CAT_ID":67905,"ELEMENT_SET_NO":999,"REV_AT_EPOCH":302,"BSTAR":0.00036008,"MEAN_MOTION_DOT":0.00075805,"MEAN_MOTION_DDOT":0},{"OBJECT_NAME":"STARLINK-36763","OBJECT_ID":"2026-036C","EPOCH":"2026-03-05T20:00:00.999360","MEAN_MOTION":15.81989659,"ECCENTRICITY":0.0001666,"INCLINATION":42.9987,"RA_OF_ASC_NODE":273.4234,"ARG_OF_PERICENTER":248.9505,"MEAN_ANOMALY":323.4996,"EPHEMERIS_TYPE":0,"CLASSIFICATION_TYPE":"U","NORAD_CAT_ID":67906,"ELEMENT_SET_NO":999,"REV_AT_EPOCH":302,"BSTAR":0.00017904,"MEAN_MOTION_DOT":0.00037281,"MEAN_MOTION_DDOT":0},{"OBJECT_NAME":"STARLINK-36742","OBJECT_ID":"2026-036D","EPOCH":"2026-03-05T20:00:00.999360","MEAN_MOTION":15.81984471,"ECCENTRICITY":0.000171,"INCLINATION":42.9985,"RA_OF_ASC_NODE":273.4131,"ARG_OF_PERICENTER":257.5493,"MEAN_ANOMALY":319.1768,"EPHEMERIS_TYPE":0,"CLASSIFICATION_TYPE":"U","NORAD_CAT_ID":67907,"ELEMENT_SET_NO":999,"REV_AT_EPOCH":302,"BSTAR":0.00022005,"MEAN_MOTION_DOT":0.00045979,"MEAN_MOTION_DDOT":0},{"OBJECT_NAME":"STARLINK-36827","OBJECT_ID":"2026-036E","EPOCH":"2026-03-05T20:00:00.999360","MEAN_MOTION":15.81991849,"ECCENTRICITY":0.0001425,"INCLINATION":42.9983,"RA_OF_ASC_NODE":273.4024,"ARG_OF_PERICENTER":268.5627,"MEAN_ANOMALY":312.4256,"EPHEMERIS_TYPE":0,"CLASSIFICATION_TYPE":"U","NORAD_CAT_ID":67908,"ELEMENT_SET_NO":999,"REV_AT_EPOCH":302,"BSTAR":0.00022546,"MEAN_MOTION_DOT":0.00047146,"MEAN_MOTION_DDOT":0},{"OBJECT_NAME":"STARLINK-36822","OBJECT_ID":"2026-036F","EPOCH":"2026-03-05T20:00:00.999360","MEAN_MOTION":15.8199827,"ECCENTRICITY":0.0001756,"INCLINATION":42.9985,"RA_OF_ASC_NODE":273.392,"ARG_OF_PERICENTER":247.3928,"MEAN_ANOMALY":337.8684,"EPHEMERIS_TYPE":0,"CLASSIFICATION_TYPE":"U","NORAD_CAT_ID":67909,"ELEMENT_SET_NO":999,"REV_AT_EPOCH":302,"BSTAR":0.00013893,"MEAN_MOTION_DOT":0.00028793,"MEAN_MOTION_DDOT":0},{"OBJECT_NAME":"STARLINK-36847","OBJECT_ID":"2026-036G","EPOCH":"2026-03-05T20:00:00.999360","MEAN_MOTION":15.82028417,"ECCENTRICITY":0.0001744,"INCLINATION":42.9986,"RA_OF_ASC_NODE":273.381,"ARG_OF_PERICENTER":280.8159,"MEAN_ANOMALY":308.7112,"EPHEMERIS_TYPE":0,"CLASSIFICATION_TYPE":"U","NORAD_CAT_ID":67910,"ELEMENT_SET_NO":999,"REV_AT_EPOCH":302,"BSTAR":-0.00015701,"MEAN_MOTION_DOT":-0.00033487,"MEAN_MOTION_DDOT":0},{"OBJECT_NAME":"STARLINK-36736","OBJECT_ID":"2026-036H","EPOCH":"2026-03-05T20:00:00.999360","MEAN_MOTION":15.820048,"ECCENTRICITY":0.000186,"INCLINATION":42.9988,"RA_OF_ASC_NODE":273.37,"ARG_OF_PERICENTER":302.7171,"MEAN_ANOMALY":291.1011,"EPHEMERIS_TYPE":0,"CLASSIFICATION_TYPE":"U","NORAD_CAT_ID":67911,"ELEMENT_SET_NO":999,"REV_AT_EPOCH":302,"BSTAR":4.1017e-5,"MEAN_MOTION_DOT":8.107e-5,"MEAN_MOTION_DDOT":0},{"OBJECT_NAME":"STARLINK-36676","OBJECT_ID":"2026-036J","EPOCH":"2026-03-05T20:00:00.999360","MEAN_MOTION":15.82016841,"ECCENTRICITY":0.000203,"INCLINATION":42.9986,"RA_OF_ASC_NODE":273.3596,"ARG_OF_PERICENTER":264.7249,"MEAN_ANOMALY":333.3527,"EPHEMERIS_TYPE":0,"CLASSIFICATION_TYPE":"U","NORAD_CAT_ID":67912,"ELEMENT_SET_NO":999,"REV_AT_EPOCH":302,"BSTAR":-1.4076e-5,"MEAN_MOTION_DOT":-3.497e-5,"MEAN_MOTION_DDOT":0},{"OBJECT_NAME":"STARLINK-36690","OBJECT_ID":"2026-036K","EPOCH":"2026-03-05T20:00:00.999360","MEAN_MOTION":15.8204645,"ECCENTRICITY":0.0001621,"INCLINATION":42.9987,"RA_OF_ASC_NODE":273.3488,"ARG_OF_PERICENTER":294.1971,"MEAN_ANOMALY":308.1454,"EPHEMERIS_TYPE":0,"CLASSIFICATION_TYPE":"U","NORAD_CAT_ID":67913,"ELEMENT_SET_NO":999,"REV_AT_EPOCH":302,"BSTAR":-0.00025802,"MEAN_MOTION_DOT":-0.00054599,"MEAN_MOTION_DDOT":0},{"OBJECT_NAME":"STARLINK-36724","OBJECT_ID":"2026-036L","EPOCH":"2026-03-05T20:00:00.999360","MEAN_MOTION":15.81993777,"ECCENTRICITY":0.0001963,"INCLINATION":42.9988,"RA_OF_ASC_NODE":273.3266,"ARG_OF_PERICENTER":302.1671,"MEAN_ANOMALY":308.7259,"EPHEMERIS_TYPE":0,"CLASSIFICATION_TYPE":"U","NORAD_CAT_ID":67914,"ELEMENT_SET_NO":999,"REV_AT_EPOCH":302,"BSTAR":9.7696e-5,"MEAN_MOTION_DOT":0.00020065,"MEAN_MOTION_DDOT":0},{"OBJECT_NAME":"STARLINK-36723","OBJECT_ID":"2026-036M","EPOCH":"2026-03-05T20:00:00.999360","MEAN_MOTION":15.82023525,"ECCENTRICITY":0.0001597,"INCLINATION":42.9987,"RA_OF_ASC_NODE":273.3379,"ARG_OF_PERICENTER":276.0895,"MEAN_ANOMALY":330.5264,"EPHEMERIS_TYPE":0,"CLASSIFICATION_TYPE":"U","NORAD_CAT_ID":67915,"ELEMENT_SET_NO":999,"REV_AT_EPOCH":302,"BSTAR":-8.6116e-5,"MEAN_MOTION_DOT":-0.00018633,"MEAN_MOTION_DDOT":0}]
